COSMOS 2433 [GLONASS-M] 
1 32275U 07052A   26129.43653047 -.00000012  00000+0  00000+0 0  9997
2 32275  65.5989 317.2378 0001155 189.3262 170.6903  2.13104355144231
COSMOS 2432 [GLONASS-M] 
1 32276U 07052B   26129.48049652 -.00000012  00000+0  00000+0 0  9994
2 32276  65.6150 317.3634 0008669 337.7319   0.0321  2.13103437144250
COSMOS 2434 [GLONASS-M] 
1 32393U 07065A   26128.16975312  .00000029  00000+0  00000+0 0  9990
2 32393  64.3158 193.2655 0001355  53.1564 305.0560  2.13101569142912
COSMOS 2436 [GLONASS-M] 
1 32395U 07065C   26127.14265252  .00000028  00000+0  00000+0 0  9993
2 32395  64.3241 193.3717 0017190 357.9055  64.8346  2.13100394142851
COSMOS 2456 [GLONASS-M] 
1 36111U 09070A   26128.17388148  .00000011  00000+0  00000+0 0  9997
2 36111  64.9894  72.3358 0005922 318.6806 200.6137  2.13103809127570
COSMOS 2457 [GLONASS-M] 
1 36112U 09070B   26129.44520065  .00000012  00000+0  00000+0 0  9996
2 36112  64.9756  72.1371 0001393 153.5263  28.8519  2.13101307127601
COSMOS 2460 [GLONASS-M] 
1 36402U 10007C   26127.56024126 -.00000020  00000+0  00000+0 0  9998
2 36402  65.4441 315.8409 0002334  73.0027 105.0928  2.13106390125864
COSMOS 2476 [GLONASS-M] 
1 37867U 11064A   26129.13366769  .00000017  00000+0  00000+0 0  9990
2 37867  65.2492  74.1889 0023864 241.6126 202.3393  2.13103922112934
COSMOS 2477 [GLONASS-M] 
1 37868U 11064B   26129.38454885  .00000017  00000+0  00000+0 0  9995
2 37868  65.2558  74.2594 0020926 243.2336 213.6417  2.13103086112932
COSMOS 2475 [GLONASS-M] 
1 37869U 11064C   26128.60710168  .00000017  00000+0  00000+0 0  9999
2 37869  65.2621  74.3073 0026690 254.9931 280.7342  2.13101767112926
COSMOS 2485 [GLONASS-M] 
1 39155U 13019A   26128.96145381  .00000019  00000+0  00000+0 0  9991
2 39155  65.3994  74.9198 0024214 236.9951 122.7618  2.13103363101446
COSMOS 2492 [GLONASS-M] 
1 39620U 14012A   26128.92040109 -.00000013  00000+0  00000+0 0  9995
2 39620  65.3206 315.2705 0011119 329.8155  30.1356  2.13103347 94402
COSMOS 2500 [GLONASS-M] 
1 40001U 14032A   26129.09065559 -.00000012  00000+0  00000+0 0  9996
2 40001  65.2556 315.0151 0005992 181.4520 178.5615  2.13106197 92620
COSMOS 2501 [GLONASS-K] 
1 40315U 14075A   26129.35221628  .00000036  00000+0  00000+0 0  9996
2 40315  63.6143 191.7161 0022074 210.6591 149.2838  2.13101511 89022
COSMOS 2514 [GLONASS-M] 
1 41330U 16008A   26128.86735558 -.00000013  00000+0  00000+0 0  9995
2 41330  65.0453 314.3560 0009862 197.2101 162.7703  2.13102730 79780
COSMOS 2522 [GLONASS-M] 
1 42939U 17055A   26129.17449144  .00000033  00000+0  00000+0 0  9993
2 42939  64.0765 193.2117 0009768 237.5559 122.4212  2.13102004 67142
COSMOS 2527 [GLONASS-M] 
1 43508U 18053A   26129.13590378  .00000020  00000+0  00000+0 0  9993
2 43508  65.5575  75.2089 0008338 246.8753 113.0264  2.13102335 61445
COSMOS 2529 [GLONASS-M] 
1 43687U 18086A   26128.29418473  .00000028  00000+0  00000+0 0  9996
2 43687  64.2929 193.9409 0010749 255.3915 104.5617  2.13102207 58430
COSMOS 2534 [GLONASS-M] 
1 44299U 19030A   26128.58080005  .00000029  00000+0  00000+0 0  9995
2 44299  64.3663 193.9497 0012325 276.0690  78.3021  2.13102588 54070
COSMOS 2544 [GLONASS-M] 
1 44850U 19088A   26129.08060373  .00000019  00000+0  00000+0 0  9992
2 44850  65.5451  75.0351 0014613 261.5170  98.3071  2.13102106 49880
COSMOS 2545 [GLONASS-M] 
1 45358U 20018A   26127.86810108 -.00000019  00000+0  00000+0 0  9995
2 45358  64.3797 313.8358 0007177 236.2540 123.6887  2.13102735 47806
COSMOS 2547 [GLONASS-K] 
1 46805U 20075A   26125.24171473  .00000033  00000+0  00000+0 0  9996
2 46805  64.5969 193.9081 0008440 236.6486 123.3485  2.13100494 42990
COSMOS 2557 [GLONASS-K] 
1 52984U 22075A   26124.46778403 -.00000043  00000+0  00000+0 0  9994
2 52984  64.3237 316.0251 0010121 280.7053  79.1925  2.13102174 29783
COSMOS 2559 [GLONASS-K] 
1 54031U 22130A   26128.04140334 -.00000021  00000+0  00000+0 0  9991
2 54031  64.2946 315.9841 0011670 176.1053 183.9180  2.13101610 27830
COSMOS 2564 [GLONASS-M] 
1 54377U 22161A   26129.29258056  .00000033  00000+0  00000+0 0  9999
2 54377  64.7390 194.0025 0011421 221.4979 138.4865  2.13102030 26804
COSMOS 2569 [GLONASS-K2]
1 57517U 23114A   26129.30500225  .00000016  00000+0  00000+0 0  9998
2 57517  65.2815  73.9310 0012051 295.9456  63.9206  2.13103785 21432
COSMOS 2584 [GLONASS-K2]
1 63130U 25042A   26128.25337672  .00000015  00000+0  00000+0 0  9994
2 63130  65.0631  74.1590 0006471 235.6601 124.2674  2.13103808  9194
COSMOS 2596 [GLONASS-K1]
1 65590U 25206B   26128.57317766 -.00000017  00000+0  00000+0 0  9998
2 65590  64.6585 316.3650 0011483 316.3933  45.6732  2.13100763  5072
